{"type": "FeatureCollection", "features": [ {"type": "Feature", "properties": {"norad_id": 52912, "name": "GAOFEN-12 03", "group": "resource", "lat": 42.065628321631586, "lon": 71.73377582846551, "alt_km": 627.0370264946168, "timestamp": "2025-12-23T11:34:47.839760+00:00", "meta": {"OBJECT_NAME": "GAOFEN-12 03", "OBJECT_ID": "2022-069A", "EPOCH": "2025-12-23T04:28:09.676704", "MEAN_MOTION": 14.79633082, "ECCENTRICITY": 0.0001891, "INCLINATION": 97.8482, "RA_OF_ASC_NODE": 244.2936, "ARG_OF_PERICENTER": 50.2588, "MEAN_ANOMALY": 309.879, "EPHEMERIS_TYPE": 0, "CLASSIFICATION_TYPE": "U", "NORAD_CAT_ID": 52912, "ELEMENT_SET_NO": 999, "REV_AT_EPOCH": 18858, "BSTAR": 0.00020651, "MEAN_MOTION_DOT": 1.498e-05, "MEAN_MOTION_DDOT": 0}, "tle": {"line1": "1 52912U 22069A   25357.18622311  .00001498  00000+0  20651-3 0  9992", "line2": "2 52912  97.8482 244.2936 0001891  50.2588 309.8790 14.79633082188585"}}, "geometry": {"type": "Point", "coordinates": [71.73377582846551, 42.065628321631586]}}, {"type": "Feature", "properties": {"norad_id": 54754, "name": "SWOT", "group": "resource", "lat": -67.50825724490696, "lon": -119.57520856725613, "alt_km": 900.5448399308807, "timestamp": "2025-12-23T11:34:47.839770+00:00", "meta": {"OBJECT_NAME": "SWOT", "OBJECT_ID": "2022-173A", "EPOCH": "2025-12-23T03:20:39.884064", "MEAN_MOTION": 14.0016837, "ECCENTRICITY": 3.87e-05, "INCLINATION": 77.6109, "RA_OF_ASC_NODE": 272.9518, "ARG_OF_PERICENTER": 83.2798, "MEAN_ANOMALY": 276.8398, "EPHEMERIS_TYPE": 0, "CLASSIFICATION_TYPE": "U", "NORAD_CAT_ID": 54754, "ELEMENT_SET_NO": 999, "REV_AT_EPOCH": 15451, "BSTAR": 3.9621e-05, "MEAN_MOTION_DOT": 5.6e-07, "MEAN_MOTION_DDOT": 0}, "tle": {"line1": "1 54754U 22173A   25357.13935051  .00000056  00000+0  39621-4 0  9994", "line2": "2 54754  77.6109 272.9518 0000387  83.2798 276.8398 14.00168370154515"}}, "geometry": {"type": "Point", "coordinates": [-119.57520856725613, -67.50825724490696]}}, {"type": "Feature", "properties": {"norad_id": 57654, "name": "GAOFEN-12 04", "group": "resource", "lat": -48.840259815719314, "lon": -77.76842952292722, "alt_km": 637.5631973374248, "timestamp": "2025-12-23T11:34:47.839779+00:00", "meta": {"OBJECT_NAME": "GAOFEN-12 04", "OBJECT_ID": "2023-123A", "EPOCH": "2025-12-23T05:18:41.558112", "MEAN_MOTION": 14.79729012, "ECCENTRICITY": 0.0001209, "INCLINATION": 97.9128, "RA_OF_ASC_NODE": 272.8198, "ARG_OF_PERICENTER": 78.3324, "MEAN_ANOMALY": 281.8024, "EPHEMERIS_TYPE": 0, "CLASSIFICATION_TYPE": "U", "NORAD_CAT_ID": 57654, "ELEMENT_SET_NO": 999, "REV_AT_EPOCH": 12660, "BSTAR": 0.00018336, "MEAN_MOTION_DOT": 1.327e-05, "MEAN_MOTION_DDOT": 0}, "tle": {"line1": "1 57654U 23123A   25357.22131433  .00001327  00000+0  18336-3 0  9995", "line2": "2 57654  97.9128 272.8198 0001209  78.3324 281.8024 14.79729012126603"}}, "geometry": {"type": "Point", "coordinates": [-77.76842952292722, -48.840259815719314]}}, {"type": "Feature", "properties": {"norad_id": 59065, "name": "PARS 1", "group": "resource", "lat": -17.07149518721881, "lon": 146.33694167298242, "alt_km": 455.0112644862229, "timestamp": "2025-12-23T11:34:47.839788+00:00", "meta": {"OBJECT_NAME": "PARS 1", "OBJECT_ID": "2024-039Q", "EPOCH": "2025-12-23T04:29:42.072000", "MEAN_MOTION": 15.41201559, "ECCENTRICITY": 0.0011774, "INCLINATION": 97.4651, "RA_OF_ASC_NODE": 328.3431, "ARG_OF_PERICENTER": 40.3776, "MEAN_ANOMALY": 319.8342, "EPHEMERIS_TYPE": 0, "CLASSIFICATION_TYPE": "U", "NORAD_CAT_ID": 59065, "ELEMENT_SET_NO": 999, "REV_AT_EPOCH": 10149, "BSTAR": 0.00030453, "MEAN_MOTION_DOT": 0.00012589, "MEAN_MOTION_DDOT": 0}, "tle": {"line1": "1 59065U 24039Q   25357.18729250  .00012589  00000+0  30453-3 0  9991", "line2": "2 59065  97.4651 328.3431 0011774  40.3776 319.8342 15.41201559101498"}}, "geometry": {"type": "Point", "coordinates": [146.33694167298242, -17.07149518721881]}}, {"type": "Feature", "properties": {"norad_id": 59371, "name": "RESURS-P 4", "group": "resource", "lat": -7.378768438579781, "lon": -55.46147428262221, "alt_km": 473.2443745346027, "timestamp": "2025-12-23T11:34:47.839797+00:00", "meta": {"OBJECT_NAME": "RESURS-P 4", "OBJECT_ID": "2024-061A", "EPOCH": "2025-12-23T03:46:30.749376", "MEAN_MOTION": 15.32164006, "ECCENTRICITY": 9.15e-05, "INCLINATION": 97.2563, "RA_OF_ASC_NODE": 303.2744, "ARG_OF_PERICENTER": 72.5127, "MEAN_ANOMALY": 287.6215, "EPHEMERIS_TYPE": 0, "CLASSIFICATION_TYPE": "U", "NORAD_CAT_ID": 59371, "ELEMENT_SET_NO": 999, "REV_AT_EPOCH": 9680, "BSTAR": 0.00014253, "MEAN_MOTION_DOT": 4.35e-05, "MEAN_MOTION_DDOT": 0}, "tle": {"line1": "1 59371U 24061A   25357.15730034  .00004350  00000+0  14253-3 0  9992", "line2": "2 59371  97.2563 303.2744 0000915  72.5127 287.6215 15.32164006 96803"}}, "geometry": {"type": "Point", "coordinates": [-55.46147428262221, -7.378768438579781]}}, {"type": "Feature", "properties": {"norad_id": 59625, "name": "LEGION 1", "group": "resource", "lat": -24.126945978358606, "lon": 75.4214621626502, "alt_km": 520.8434224065177, "timestamp": "2025-12-23T11:34:47.839806+00:00", "meta": {"OBJECT_NAME": "LEGION 1", "OBJECT_ID": "2024-081A", "EPOCH": "2025-12-22T21:26:07.519776", "MEAN_MOTION": 15.16573479, "ECCENTRICITY": 0.00036279, "INCLINATION": 97.5201, "RA_OF_ASC_NODE": 71.4452, "ARG_OF_PERICENTER": 270.1017, "MEAN_ANOMALY": 89.98, "EPHEMERIS_TYPE": 0, "CLASSIFICATION_TYPE": "U", "NORAD_CAT_ID": 59625, "ELEMENT_SET_NO": 999, "REV_AT_EPOCH": 9081, "BSTAR": 0.00029998685, "MEAN_MOTION_DOT": 5.79e-05, "MEAN_MOTION_DDOT": 0}, "tle": {"line1": "1 59625U 24081A   25356.89314259  .00005790  00000+0  29999-3 0  9995", "line2": "2 59625  97.5201  71.4452 0003627 270.1017  89.9800 15.16573479 90812"}}, "geometry": {"type": "Point", "coordinates": [75.4214621626502, -24.126945978358606]}}, {"type": "Feature", "properties": {"norad_id": 59626, "name": "LEGION 2", "group": "resource", "lat": 23.74248201912741, "lon": -104.55146485163472, "alt_km": 515.8084162407358, "timestamp": "2025-12-23T11:34:47.839815+00:00", "meta": {"OBJECT_NAME": "LEGION 2", "OBJECT_ID": "2024-081B", "EPOCH": "2025-12-22T20:38:33.108288", "MEAN_MOTION": 15.16586549, "ECCENTRICITY": 0.00056773, "INCLINATION": 97.5203, "RA_OF_ASC_NODE": 71.5003, "ARG_OF_PERICENTER": 249.6967, "MEAN_ANOMALY": 110.3656, "EPHEMERIS_TYPE": 0, "CLASSIFICATION_TYPE": "U", "NORAD_CAT_ID": 59626, "ELEMENT_SET_NO": 999, "REV_AT_EPOCH": 9081, "BSTAR": 0.00026026109, "MEAN_MOTION_DOT": 5.017e-05, "MEAN_MOTION_DDOT": 0}, "tle": {"line1": "1 59626U 24081B   25356.86010542  .00005017  00000+0  26026-3 0  9991", "line2": "2 59626  97.5203  71.5003 0005677 249.6967 110.3656 15.16586549 90810"}}, "geometry": {"type": "Point", "coordinates": [-104.55146485163472, 23.74248201912741]}}, {"type": "Feature", "properties": {"norad_id": 60182, "name": "ALOS-4 (DAICHI-4)", "group": "resource", "lat": -2.02770636635761, "lon": -88.1064176397231, "alt_km": 634.2210088239453, "timestamp": "2025-12-23T11:34:47.839824+00:00", "meta": {"OBJECT_NAME": "ALOS-4 (DAICHI-4)", "OBJECT_ID": "2024-123A", "EPOCH": "2025-12-20T19:27:23.065632", "MEAN_MOTION": 14.79476706, "ECCENTRICITY": 0.00013885, "INCLINATION": 97.9224, "RA_OF_ASC_NODE": 89.5428, "ARG_OF_PERICENTER": 101.3368, "MEAN_ANOMALY": 258.8, "EPHEMERIS_TYPE": 0, "CLASSIFICATION_TYPE": "U", "NORAD_CAT_ID": 60182, "ELEMENT_SET_NO": 999, "REV_AT_EPOCH": 7950, "BSTAR": 0.00018386978, "MEAN_MOTION_DOT": 1.322e-05, "MEAN_MOTION_DDOT": 0}, "tle": {"line1": "1 60182U 24123A   25354.81068363  .00001322  00000+0  18387-3 0  9990", "line2": "2 60182  97.9224  89.5428 0001388 101.3368 258.8000 14.79476706 79505"}}, "geometry": {"type": "Point", "coordinates": [-88.1064176397231, -2.02770636635761]}}, {"type": "Feature", "properties": {"norad_id": 60452, "name": "LEGION 3", "group": "resource", "lat": -44.80428877745107, "lon": 168.893142523943, "alt_km": 511.7463652093875, "timestamp": "2025-12-23T11:34:47.839833+00:00", "meta": {"OBJECT_NAME": "LEGION 3", "OBJECT_ID": "2024-146A", "EPOCH": "2025-12-22T21:43:15.295296", "MEAN_MOTION": 15.15859061, "ECCENTRICITY": 0.00157176, "INCLINATION": 45.0008, "RA_OF_ASC_NODE": 255.635, "ARG_OF_PERICENTER": 252.9816, "MEAN_ANOMALY": 106.934, "EPHEMERIS_TYPE": 0, "CLASSIFICATION_TYPE": "U", "NORAD_CAT_ID": 60452, "ELEMENT_SET_NO": 999, "REV_AT_EPOCH": 7527, "BSTAR": 0.00026629018, "MEAN_MOTION_DOT": 4.932e-05, "MEAN_MOTION_DDOT": 0}, "tle": {"line1": "1 60452U 24146A   25356.90503814  .00004932  00000+0  26629-3 0  9990", "line2": "2 60452  45.0008 255.6350 0015717 252.9816 106.9340 15.15859061 75271"}}, "geometry": {"type": "Point", "coordinates": [168.893142523943, -44.80428877745107]}}, {"type": "Feature", "properties": {"norad_id": 60453, "name": "LEGION 4", "group": "resource", "lat": -44.914676425663416, "lon": -100.7866947407178, "alt_km": 522.5178541618661, "timestamp": "2025-12-23T11:34:47.839843+00:00", "meta": {"OBJECT_NAME": "LEGION 4", "OBJECT_ID": "2024-146B", "EPOCH": "2025-12-22T23:18:27.966528", "MEAN_MOTION": 15.15926035, "ECCENTRICITY": 0.00083892, "INCLINATION": 45.0392, "RA_OF_ASC_NODE": 347.0607, "ARG_OF_PERICENTER": 7.3235, "MEAN_ANOMALY": 352.7765, "EPHEMERIS_TYPE": 0, "CLASSIFICATION_TYPE": "U", "NORAD_CAT_ID": 60453, "ELEMENT_SET_NO": 999, "REV_AT_EPOCH": 7413, "BSTAR": 0.00033140871, "MEAN_MOTION_DOT": 6.205e-05, "MEAN_MOTION_DDOT": 0}, "tle": {"line1": "1 60453U 24146B   25356.97115702  .00006205  00000+0  33141-3 0  9995", "line2": "2 60453  45.0392 347.0607 0008389   7.3235 352.7765 15.15926035 74135"}}, "geometry": {"type": "Point", "coordinates": [-100.7866947407178, -44.914676425663416]}}]}